{"type": "FeatureCollection", "features": [ {"type": "Feature", "properties": {"norad_id": 34117, "name": "COSMOS 2251 DEB", "group": "cosmos-2251-debris", "lat": -35.302471882777674, "lon": 168.6581511037291, "alt_km": 801.9161051045921, "timestamp": "2025-12-16T10:53:45.864838+00:00", "meta": {"OBJECT_NAME": "COSMOS 2251 DEB", "OBJECT_ID": "1993-036KN", "EPOCH": "2025-12-15T22:13:27.151680", "MEAN_MOTION": 14.40025113, "ECCENTRICITY": 0.00546589, "INCLINATION": 74.04, "RA_OF_ASC_NODE": 337.9417, "ARG_OF_PERICENTER": 53.3681, "MEAN_ANOMALY": 307.2482, "EPHEMERIS_TYPE": 0, "CLASSIFICATION_TYPE": "U", "NORAD_CAT_ID": 34117, "ELEMENT_SET_NO": 999, "REV_AT_EPOCH": 88169, "BSTAR": 0.00054282202, "MEAN_MOTION_DOT": 1.715e-05, "MEAN_MOTION_DDOT": 0}, "tle": {"line1": "1 34117U 93036KN  25349.92600870  .00001715  00000+0  54282-3 0  9999", "line2": "2 34117  74.0400 337.9417 0054658  53.3681 307.2482 14.40025113881690"}}, "geometry": {"type": "Point", "coordinates": [168.6581511037291, -35.302471882777674]}}, {"type": "Feature", "properties": {"norad_id": 34118, "name": "COSMOS 2251 DEB", "group": "cosmos-2251-debris", "lat": -65.58204165541467, "lon": -157.559482710831, "alt_km": 625.1008429306266, "timestamp": "2025-12-16T10:53:45.864848+00:00", "meta": {"OBJECT_NAME": "COSMOS 2251 DEB", "OBJECT_ID": "1993-036KP", "EPOCH": "2025-12-15T19:25:26.940576", "MEAN_MOTION": 14.94067708, "ECCENTRICITY": 0.00599076, "INCLINATION": 73.9525, "RA_OF_ASC_NODE": 243.0913, "ARG_OF_PERICENTER": 72.6525, "MEAN_ANOMALY": 350.481, "EPHEMERIS_TYPE": 0, "CLASSIFICATION_TYPE": "U", "NORAD_CAT_ID": 34118, "ELEMENT_SET_NO": 999, "REV_AT_EPOCH": 89222, "BSTAR": 0.0010308369, "MEAN_MOTION_DOT": 0.00011386, "MEAN_MOTION_DDOT": 0}, "tle": {"line1": "1 34118U 93036KP  25349.80933959  .00011386  00000+0  10308-2 0  9999", "line2": "2 34118  73.9525 243.0913 0059907  72.6525 350.4810 14.94067708892229"}}, "geometry": {"type": "Point", "coordinates": [-157.559482710831, -65.58204165541467]}}, {"type": "Feature", "properties": {"norad_id": 34120, "name": "COSMOS 2251 DEB", "group": "cosmos-2251-debris", "lat": 32.753943787762324, "lon": 19.144346280825054, "alt_km": 936.9502994094728, "timestamp": "2025-12-16T10:53:45.864859+00:00", "meta": {"OBJECT_NAME": "COSMOS 2251 DEB", "OBJECT_ID": "1993-036KR", "EPOCH": "2025-12-15T02:22:18.827328", "MEAN_MOTION": 13.9868644, "ECCENTRICITY": 0.01820726, "INCLINATION": 73.9909, "RA_OF_ASC_NODE": 212.1344, "ARG_OF_PERICENTER": 39.2943, "MEAN_ANOMALY": 123.3499, "EPHEMERIS_TYPE": 0, "CLASSIFICATION_TYPE": "U", "NORAD_CAT_ID": 34120, "ELEMENT_SET_NO": 999, "REV_AT_EPOCH": 86013, "BSTAR": 0.0003441415, "MEAN_MOTION_DOT": 5.46e-06, "MEAN_MOTION_DDOT": 0}, "tle": {"line1": "1 34120U 93036KR  25349.09882902  .00000546  00000+0  34414-3 0  9995", "line2": "2 34120  73.9909 212.1344 0182072  39.2943 123.3499 13.98686440860134"}}, "geometry": {"type": "Point", "coordinates": [19.144346280825054, 32.753943787762324]}}, {"type": "Feature", "properties": {"norad_id": 34121, "name": "COSMOS 2251 DEB", "group": "cosmos-2251-debris", "lat": -73.18114227679646, "lon": -17.454255320082847, "alt_km": 776.7357616778991, "timestamp": "2025-12-16T10:53:45.864869+00:00", "meta": {"OBJECT_NAME": "COSMOS 2251 DEB", "OBJECT_ID": "1993-036KS", "EPOCH": "2025-12-15T09:46:14.469888", "MEAN_MOTION": 13.91939949, "ECCENTRICITY": 0.02404377, "INCLINATION": 73.993, "RA_OF_ASC_NODE": 92.5989, "ARG_OF_PERICENTER": 297.4808, "MEAN_ANOMALY": 124.7485, "EPHEMERIS_TYPE": 0, "CLASSIFICATION_TYPE": "U", "NORAD_CAT_ID": 34121, "ELEMENT_SET_NO": 999, "REV_AT_EPOCH": 85162, "BSTAR": 0.0010469792, "MEAN_MOTION_DOT": 1.665e-05, "MEAN_MOTION_DDOT": 0}, "tle": {"line1": "1 34121U 93036KS  25349.40711192  .00001665  00000+0  10470-2 0  9991", "line2": "2 34121  73.9930  92.5989 0240437 297.4808 124.7485 13.91939949851624"}}, "geometry": {"type": "Point", "coordinates": [-17.454255320082847, -73.18114227679646]}}, {"type": "Feature", "properties": {"norad_id": 34122, "name": "COSMOS 2251 DEB", "group": "cosmos-2251-debris", "lat": 51.1448010364431, "lon": 132.302264650685, "alt_km": 630.6491729422487, "timestamp": "2025-12-16T10:53:45.864879+00:00", "meta": {"OBJECT_NAME": "COSMOS 2251 DEB", "OBJECT_ID": "1993-036KT", "EPOCH": "2025-12-15T18:48:28.103040", "MEAN_MOTION": 14.65090616, "ECCENTRICITY": 0.00844818, "INCLINATION": 74.0358, "RA_OF_ASC_NODE": 112.7776, "ARG_OF_PERICENTER": 8.7907, "MEAN_ANOMALY": 110.5049, "EPHEMERIS_TYPE": 0, "CLASSIFICATION_TYPE": "U", "NORAD_CAT_ID": 34122, "ELEMENT_SET_NO": 999, "REV_AT_EPOCH": 88729, "BSTAR": 0.00074274055, "MEAN_MOTION_DOT": 4.173e-05, "MEAN_MOTION_DDOT": 0}, "tle": {"line1": "1 34122U 93036KT  25349.78365860  .00004173  00000+0  74274-3 0  9990", "line2": "2 34122  74.0358 112.7776 0084481   8.7907 110.5049 14.65090616887290"}}, "geometry": {"type": "Point", "coordinates": [132.302264650685, 51.1448010364431]}}, {"type": "Feature", "properties": {"norad_id": 34127, "name": "COSMOS 2251 DEB", "group": "cosmos-2251-debris", "lat": -53.45550846828347, "lon": -120.35554507861768, "alt_km": 710.7280360026989, "timestamp": "2025-12-16T10:53:45.864889+00:00", "meta": {"OBJECT_NAME": "COSMOS 2251 DEB", "OBJECT_ID": "1993-036KY", "EPOCH": "2025-12-15T03:45:09.950688", "MEAN_MOTION": 14.31570499, "ECCENTRICITY": 0.01149682, "INCLINATION": 74.1798, "RA_OF_ASC_NODE": 39.4965, "ARG_OF_PERICENTER": 239.1061, "MEAN_ANOMALY": 152.5561, "EPHEMERIS_TYPE": 0, "CLASSIFICATION_TYPE": "U", "NORAD_CAT_ID": 34127, "ELEMENT_SET_NO": 999, "REV_AT_EPOCH": 86806, "BSTAR": 0.0010869909, "MEAN_MOTION_DOT": 3.085e-05, "MEAN_MOTION_DDOT": 0}, "tle": {"line1": "1 34127U 93036KY  25349.15636517  .00003085  00000+0  10870-2 0  9998", "line2": "2 34127  74.1798  39.4965 0114968 239.1061 152.5561 14.31570499868068"}}, "geometry": {"type": "Point", "coordinates": [-120.35554507861768, -53.45550846828347]}}, {"type": "Feature", "properties": {"norad_id": 34128, "name": "COSMOS 2251 DEB", "group": "cosmos-2251-debris", "lat": -62.10795396135059, "lon": -103.68782593042421, "alt_km": 574.948523889223, "timestamp": "2025-12-16T10:53:45.864900+00:00", "meta": {"OBJECT_NAME": "COSMOS 2251 DEB", "OBJECT_ID": "1993-036KZ", "EPOCH": "2025-12-15T22:41:25.105344", "MEAN_MOTION": 15.01298848, "ECCENTRICITY": 0.00259354, "INCLINATION": 73.9993, "RA_OF_ASC_NODE": 290.1796, "ARG_OF_PERICENTER": 41.5706, "MEAN_ANOMALY": 24.391, "EPHEMERIS_TYPE": 0, "CLASSIFICATION_TYPE": "U", "NORAD_CAT_ID": 34128, "ELEMENT_SET_NO": 999, "REV_AT_EPOCH": 89215, "BSTAR": 0.0012240245, "MEAN_MOTION_DOT": 0.00015859, "MEAN_MOTION_DDOT": 0}, "tle": {"line1": "1 34128U 93036KZ  25349.94542946  .00015859  00000+0  12240-2 0  9993", "line2": "2 34128  73.9993 290.1796 0025935  41.5706  24.3910 15.01298848892151"}}, "geometry": {"type": "Point", "coordinates": [-103.68782593042421, -62.10795396135059]}}, {"type": "Feature", "properties": {"norad_id": 34129, "name": "COSMOS 2251 DEB", "group": "cosmos-2251-debris", "lat": -47.89816701822867, "lon": 170.72900017892255, "alt_km": 672.2653147353512, "timestamp": "2025-12-16T10:53:45.864910+00:00", "meta": {"OBJECT_NAME": "COSMOS 2251 DEB", "OBJECT_ID": "1993-036LA", "EPOCH": "2025-12-15T09:27:10.396512", "MEAN_MOTION": 14.75788643, "ECCENTRICITY": 0.00330258, "INCLINATION": 74.035, "RA_OF_ASC_NODE": 334.3326, "ARG_OF_PERICENTER": 54.9728, "MEAN_ANOMALY": 305.4537, "EPHEMERIS_TYPE": 0, "CLASSIFICATION_TYPE": "U", "NORAD_CAT_ID": 34129, "ELEMENT_SET_NO": 999, "REV_AT_EPOCH": 61337, "BSTAR": 0.00089607346, "MEAN_MOTION_DOT": 6.167e-05, "MEAN_MOTION_DDOT": 0}, "tle": {"line1": "1 34129U 93036LA  25349.39387033  .00006167  00000+0  89607-3 0  9991", "line2": "2 34129  74.0350 334.3326 0033025  54.9728 305.4537 14.75788643613372"}}, "geometry": {"type": "Point", "coordinates": [170.72900017892255, -47.89816701822867]}}, {"type": "Feature", "properties": {"norad_id": 34136, "name": "COSMOS 2251 DEB", "group": "cosmos-2251-debris", "lat": 72.029330024644, "lon": 97.36487643188899, "alt_km": 606.294043760663, "timestamp": "2025-12-16T10:53:45.864920+00:00", "meta": {"OBJECT_NAME": "COSMOS 2251 DEB", "OBJECT_ID": "1993-036LH", "EPOCH": "2025-12-15T14:06:57.502656", "MEAN_MOTION": 14.80102513, "ECCENTRICITY": 0.00855621, "INCLINATION": 74.0212, "RA_OF_ASC_NODE": 37.015, "ARG_OF_PERICENTER": 159.2218, "MEAN_ANOMALY": 351.8506, "EPHEMERIS_TYPE": 0, "CLASSIFICATION_TYPE": "U", "NORAD_CAT_ID": 34136, "ELEMENT_SET_NO": 999, "REV_AT_EPOCH": 90052, "BSTAR": 0.00029225981, "MEAN_MOTION_DOT": 2.322e-05, "MEAN_MOTION_DDOT": 0}, "tle": {"line1": "1 34136U 93036LH  25349.58816554  .00002322  00000+0  29226-3 0  9995", "line2": "2 34136  74.0212  37.0150 0085562 159.2218 351.8506 14.80102513900524"}}, "geometry": {"type": "Point", "coordinates": [97.36487643188899, 72.029330024644]}}, {"type": "Feature", "properties": {"norad_id": 34139, "name": "COSMOS 2251 DEB", "group": "cosmos-2251-debris", "lat": -58.831358595651714, "lon": 95.23994715600853, "alt_km": 694.6927928808418, "timestamp": "2025-12-16T10:53:45.864930+00:00", "meta": {"OBJECT_NAME": "COSMOS 2251 DEB", "OBJECT_ID": "1993-036LL", "EPOCH": "2025-12-15T19:16:14.726208", "MEAN_MOTION": 14.59109418, "ECCENTRICITY": 0.00424749, "INCLINATION": 74.0307, "RA_OF_ASC_NODE": 248.2244, "ARG_OF_PERICENTER": 318.8068, "MEAN_ANOMALY": 106.023, "EPHEMERIS_TYPE": 0, "CLASSIFICATION_TYPE": "U", "NORAD_CAT_ID": 34139, "ELEMENT_SET_NO": 999, "REV_AT_EPOCH": 88194, "BSTAR": 0.00089397396, "MEAN_MOTION_DOT": 4.232e-05, "MEAN_MOTION_DDOT": 0}, "tle": {"line1": "1 34139U 93036LL  25349.80294822  .00004232  00000+0  89397-3 0  9998", "line2": "2 34139  74.0307 248.2244 0042474 318.8068 106.0230 14.59109418881948"}}, "geometry": {"type": "Point", "coordinates": [95.23994715600853, -58.831358595651714]}}]}